start=new Date('2022-12-04T00:00:00.000Z').valueOf();
sats=[{"OBJECT_ID":"2022-083BB","TIME_SYSTEM":"UTC","INCLINATION":"53.2163","RA_OF_ASC_NODE":"77.8059","SEMIMAJOR_AXIS":"6780.698","CENTER_NAME":"EARTH","EPOCH":"2022-12-03T22:00:00.999936","OBJECT_TYPE":"PAYLOAD","MEAN_MOTION_DDOT":"0.0000000000000","MEAN_ELEMENT_THEORY":"SGP4","ELEMENT_SET_NO":"999","MEAN_ANOMALY":"236.0165","ARG_OF_PERICENTER":"45.4418","EPHEMERIS_TYPE":"0","SITE":"AFETR","NORAD_CAT_ID":"53181","TLE_LINE1":"1 53181U 22083BB  22337.91667824 -.01159807  00000-0 -18964-1 0  9995","GP_ID":"219482543","ECCENTRICITY":"0.00014690","DECAY_DATE":null,"TLE_LINE2":"2 53181  53.2163  77.8059 0001469  45.4418 236.0165 15.54859438  1301","LAUNCH_DATE":"2022-07-17","FILE":"3680595","BSTAR":"-0.01896400000000","APOAPSIS":"403.559","REV_AT_EPOCH":"130","COUNTRY_CODE":"US","RCS_SIZE":"LARGE","CLASSIFICATION_TYPE":"U","PERIOD":"92.613","REF_FRAME":"TEME","PERIAPSIS":"401.567","MEAN_MOTION_DOT":"-0.01159807","OBJECT_NAME":"STARLINK-4273","MEAN_MOTION":"15.54859438"},{"GP_ID":"219482729","NORAD_CAT_ID":"53182","SITE":"AFETR","TLE_LINE1":"1 53182U 22083BC  22337.91667824 -.00017144  00000-0 -10615-2 0  9998","RCS_SIZE":"LARGE","CLASSIFICATION_TYPE":"U","COUNTRY_CODE":"US","TLE_LINE2":"2 53182  53.2163  89.1970 0001398  80.2591 208.6527 15.08843743  1308","LAUNCH_DATE":"2022-07-17","FILE":"3680595","BSTAR":"-0.00106150000000","DECAY_DATE":null,"ECCENTRICITY":"0.00013980","REV_AT_EPOCH":"130","APOAPSIS":"540.701","PERIAPSIS":"538.767","MEAN_MOTION_DOT":"-0.00017144","REF_FRAME":"TEME","PERIOD":"95.437","MEAN_MOTION":"15.08843743","OBJECT_NAME":"STARLINK-4278","SEMIMAJOR_AXIS":"6917.869","CENTER_NAME":"EARTH","INCLINATION":"53.2163","TIME_SYSTEM":"UTC","OBJECT_ID":"2022-083BC","RA_OF_ASC_NODE":"89.1970","MEAN_ELEMENT_THEORY":"SGP4","MEAN_MOTION_DDOT":"0.0000000000000","EPOCH":"2022-12-03T22:00:00.999936","OBJECT_TYPE":"PAYLOAD","MEAN_ANOMALY":"208.6527","ELEMENT_SET_NO":"999","EPHEMERIS_TYPE":"0","ARG_OF_PERICENTER":"80.2591"},{"CLASSIFICATION_TYPE":"U","RCS_SIZE":"LARGE","COUNTRY_CODE":"US","FILE":"3680595","TLE_LINE2":"2 53183  53.2158  80.0073 0001538  41.9859 142.7548 15.30794567  1309","BSTAR":"-0.04187700000000","LAUNCH_DATE":"2022-07-17","DECAY_DATE":null,"ECCENTRICITY":"0.00015380","APOAPSIS":"474.496","REV_AT_EPOCH":"130","GP_ID":"219482165","NORAD_CAT_ID":"53183","SITE":"AFETR","TLE_LINE1":"1 53183U 22083BD  22337.91667824 -.01150646  00000-0 -41877-1 0  9998","MEAN_MOTION":"15.30794567","OBJECT_NAME":"STARLINK-4268","PERIAPSIS":"472.389","MEAN_MOTION_DOT":"-0.01150646","REF_FRAME":"TEME","PERIOD":"94.069","MEAN_ELEMENT_THEORY":"SGP4","MEAN_MOTION_DDOT":"0.0000000000000","OBJECT_TYPE":"PAYLOAD","EPOCH":"2022-12-03T22:00:00.999936","CENTER_NAME":"EARTH","SEMIMAJOR_AXIS":"6851.577","INCLINATION":"53.2158","OBJECT_ID":"2022-083BD","TIME_SYSTEM":"UTC","RA_OF_ASC_NODE":"80.0073","EPHEMERIS_TYPE":"0","ARG_OF_PERICENTER":"41.9859","MEAN_ANOMALY":"142.7548","ELEMENT_SET_NO":"999"},{"OBJECT_NAME":"STARLINK-4257","MEAN_MOTION":"15.54689200","PERIOD":"92.623","REF_FRAME":"TEME","MEAN_MOTION_DOT":"-0.01151827","PERIAPSIS":"402.030","APOAPSIS":"404.087","REV_AT_EPOCH":"130","DECAY_DATE":null,"ECCENTRICITY":"0.00015170","FILE":"3680595","TLE_LINE2":"2 53184  53.2167  77.8235 0001517  43.2747 241.9212 15.54689200  1305","LAUNCH_DATE":"2022-07-17","BSTAR":"-0.01893800000000","COUNTRY_CODE":"US","RCS_SIZE":"LARGE","CLASSIFICATION_TYPE":"U","TLE_LINE1":"1 53184U 22083BE  22337.91667824 -.01151827  00000-0 -18938-1 0  9993","SITE":"AFETR","NORAD_CAT_ID":"53184","GP_ID":"219481966","ARG_OF_PERICENTER":"43.2747","EPHEMERIS_TYPE":"0","ELEMENT_SET_NO":"999","MEAN_ANOMALY":"241.9212","EPOCH":"2022-12-03T22:00:00.999936","OBJECT_TYPE":"PAYLOAD","MEAN_MOTION_DDOT":"0.0000000000000","MEAN_ELEMENT_THEORY":"SGP4","RA_OF_ASC_NODE":"77.8235","OBJECT_ID":"2022-083BE","TIME_SYSTEM":"UTC","INCLINATION":"53.2167","SEMIMAJOR_AXIS":"6781.193","CENTER_NAME":"EARTH"},{"OBJECT_TYPE":"PAYLOAD","EPOCH":"2022-12-03T15:16:54.218496","MEAN_MOTION_DDOT":"0.0000000000000","MEAN_ELEMENT_THEORY":"SGP4","RA_OF_ASC_NODE":"36.5141","TIME_SYSTEM":"UTC","OBJECT_ID":"2022-084A","INCLINATION":"97.6572","SEMIMAJOR_AXIS":"6941.186","CENTER_NAME":"EARTH","EPHEMERIS_TYPE":"0","ARG_OF_PERICENTER":"46.3396","ELEMENT_SET_NO":"999","MEAN_ANOMALY":"313.8005","APOAPSIS":"564.538","REV_AT_EPOCH":"2114","DECAY_DATE":null,"ECCENTRICITY":"0.00021420","FILE":"3680595","TLE_LINE2":"2 53189  97.6572  36.5141 0002142  46.3396 313.8005 15.01247174 21144","BSTAR":"-0.00007826300000","LAUNCH_DATE":"2022-07-22","COUNTRY_CODE":"US","CLASSIFICATION_TYPE":"U","RCS_SIZE":"LARGE","TLE_LINE1":"1 53189U 22084A   22337.63673864 -.00001064  00000-0 -78263-4 0  9995","SITE":"AFWTR","NORAD_CAT_ID":"53189","GP_ID":"219482920","OBJECT_NAME":"STARLINK-4391","MEAN_MOTION":"15.01247174","PERIOD":"95.920","REF_FRAME":"TEME","MEAN_MOTION_DOT":"-0.00001064","PERIAPSIS":"561.565"},{"OBJECT_NAME":"STARLINK-4332","MEAN_MOTION":"15.01257387","PERIOD":"95.920","REF_FRAME":"TEME","PERIAPSIS":"562.258","MEAN_MOTION_DOT":"0.00000300","ECCENTRICITY":"0.00010970","DECAY_DATE":null,"TLE_LINE2":"2 53190  97.6561  36.5122 0001097  91.5341 268.6009 15.01257387 21141","FILE":"3680595","LAUNCH_DATE":"2022-07-22","BSTAR":"0.00002798000000","APOAPSIS":"563.781","REV_AT_EPOCH":"2114","COUNTRY_CODE":"US","CLASSIFICATION_TYPE":"U","RCS_SIZE":"LARGE","SITE":"AFWTR","NORAD_CAT_ID":"53190","TLE_LINE1":"1 53190U 22084B   22337.66659663  .00000300  00000-0  27980-4 0  9991","GP_ID":"219483107","EPHEMERIS_TYPE":"0","ARG_OF_PERICENTER":"91.5341","ELEMENT_SET_NO":"999","MEAN_ANOMALY":"268.6009","EPOCH":"2022-12-03T15:59:53.948832","OBJECT_TYPE":"PAYLOAD","MEAN_MOTION_DDOT":"0.0000000000000","MEAN_ELEMENT_THEORY":"SGP4","TIME_SYSTEM":"UTC","OBJECT_ID":"2022-084B","INCLINATION":"97.6561","RA_OF_ASC_NODE":"36.5122","SEMIMAJOR_AXIS":"6941.155","CENTER_NAME":"EARTH"},{"COUNTRY_CODE":"US","RCS_SIZE":"LARGE","CLASSIFICATION_TYPE":"U","APOAPSIS":"564.356","REV_AT_EPOCH":"2046","ECCENTRICITY":"0.00019260","DECAY_DATE":null,"TLE_LINE2":"2 53191  97.6545  36.4819 0001926  54.9927 305.1478 15.01257786 20464","BSTAR":"0.00000287580000","FILE":"3680595","LAUNCH_DATE":"2022-07-22","GP_ID":"219481779","TLE_LINE1":"1 53191U 22084C   22337.63117633 -.00000022  00000-0  28758-5 0  9992","SITE":"AFWTR","NORAD_CAT_ID":"53191","MEAN_MOTION":"15.01257786","OBJECT_NAME":"STARLINK-4369","MEAN_MOTION_DOT":"-0.00000022","PERIAPSIS":"561.682","PERIOD":"95.920","REF_FRAME":"TEME","MEAN_ELEMENT_THEORY":"SGP4","EPOCH":"2022-12-03T15:08:53.634912","OBJECT_TYPE":"PAYLOAD","MEAN_MOTION_DDOT":"0.0000000000000","SEMIMAJOR_AXIS":"6941.154","CENTER_NAME":"EARTH","RA_OF_ASC_NODE":"36.4819","OBJECT_ID":"2022-084C","TIME_SYSTEM":"UTC","INCLINATION":"97.6545","ARG_OF_PERICENTER":"54.9927","EPHEMERIS_TYPE":"0","MEAN_ANOMALY":"305.1478","ELEMENT_SET_NO":"999"},{"PERIAPSIS":"561.922","MEAN_MOTION_DOT":"-0.00000442","PERIOD":"95.920","REF_FRAME":"TEME","MEAN_MOTION":"15.01250947","OBJECT_NAME":"STARLINK-4375","GP_ID":"219482353","SITE":"AFWTR","NORAD_CAT_ID":"53192","TLE_LINE1":"1 53192U 22084D   22337.62932598 -.00000442  00000-0 -29806-4 0  9998","COUNTRY_CODE":"US","CLASSIFICATION_TYPE":"U","RCS_SIZE":"LARGE","DECAY_DATE":null,"ECCENTRICITY":"0.00016100","TLE_LINE2":"2 53192  97.6554  36.4803 0001610  91.3834 268.7575 15.01250947 21139","FILE":"3680595","LAUNCH_DATE":"2022-07-22","BSTAR":"-0.00002980600000","REV_AT_EPOCH":"2113","APOAPSIS":"564.157","MEAN_ANOMALY":"268.7575","ELEMENT_SET_NO":"999","EPHEMERIS_TYPE":"0","ARG_OF_PERICENTER":"91.3834","CENTER_NAME":"EARTH","SEMIMAJOR_AXIS":"6941.175","OBJECT_ID":"2022-084D","TIME_SYSTEM":"UTC","INCLINATION":"97.6554","RA_OF_ASC_NODE":"36.4803","MEAN_ELEMENT_THEORY":"SGP4","EPOCH":"2022-12-03T15:06:13.764672","OBJECT_TYPE":"PAYLOAD","MEAN_MOTION_DDOT":"0.0000000000000"},{"SITE":"AFWTR","NORAD_CAT_ID":"53193","TLE_LINE1":"1 53193U 22084E   22337.63487229  .00001620  00000-0  13068-3 0  9995","GP_ID":"219482544","DECAY_DATE":null,"ECCENTRICITY":"0.00015860","BSTAR":"0.00013068000000","TLE_LINE2":"2 53193  97.6530  36.4966 0001586  52.9693 307.1676 15.01269840 21482","FILE":"3680595","LAUNCH_DATE":"2022-07-22","APOAPSIS":"564.082","REV_AT_EPOCH":"2148","COUNTRY_CODE":"US","RCS_SIZE":"LARGE","CLASSIFICATION_TYPE":"U","PERIOD":"95.919","REF_FRAME":"TEME","PERIAPSIS":"561.881","MEAN_MOTION_DOT":"0.00001620","OBJECT_NAME":"STARLINK-4351","MEAN_MOTION":"15.01269840","OBJECT_ID":"2022-084E","TIME_SYSTEM":"UTC","INCLINATION":"97.6530","RA_OF_ASC_NODE":"36.4966","CENTER_NAME":"EARTH","SEMIMAJOR_AXIS":"6941.117","OBJECT_TYPE":"PAYLOAD","EPOCH":"2022-12-03T15:14:12.965856","MEAN_MOTION_DDOT":"0.0000000000000","MEAN_ELEMENT_THEORY":"SGP4","ELEMENT_SET_NO":"999","MEAN_ANOMALY":"307.1676","EPHEMERIS_TYPE":"0","ARG_OF_PERICENTER":"52.9693"},{"MEAN_ELEMENT_THEORY":"SGP4","OBJECT_TYPE":"PAYLOAD","EPOCH":"2022-12-03T15:11:34.152288","MEAN_MOTION_DDOT":"0.0000000000000","SEMIMAJOR_AXIS":"6941.167","CENTER_NAME":"EARTH","OBJECT_ID":"2022-084F","TIME_SYSTEM":"UTC","INCLINATION":"97.6536","RA_OF_ASC_NODE":"36.4908","EPHEMERIS_TYPE":"0","ARG_OF_PERICENTER":"57.1653","MEAN_ANOMALY":"302.9773","ELEMENT_SET_NO":"999","COUNTRY_CODE":"US","CLASSIFICATION_TYPE":"U","RCS_SIZE":"LARGE","DECAY_DATE":null,"ECCENTRICITY":"0.00021010","TLE_LINE2":"2 53194  97.6536  36.4908 0002101  57.1653 302.9773 15.01253408 20463","FILE":"3680595","LAUNCH_DATE":"2022-07-22","BSTAR":"-0.00003843900000","APOAPSIS":"564.491","REV_AT_EPOCH":"2046","GP_ID":"219482730","SITE":"AFWTR","NORAD_CAT_ID":"53194","TLE_LINE1":"1 53194U 22084F   22337.63303417 -.00000553  00000-0 -38439-4 0  9998","MEAN_MOTION":"15.01253408","OBJECT_NAME":"STARLINK-4382","PERIAPSIS":"561.574","MEAN_MOTION_DOT":"-0.00000553","PERIOD":"95.920","REF_FRAME":"TEME"}];
